[{"OBJECT_NAME":"STARLINK-36805","OBJECT_ID":"2026-044R","EPOCH":"2026-03-28T21:17:21.792192","MEAN_MOTION":15.75200355,"ECCENTRICITY":0.00012098,"INCLINATION":97.285,"RA_OF_ASC_NODE":48.9954,"ARG_OF_PERICENTER":87.6959,"MEAN_ANOMALY":272.4445,"EPHEMERIS_TYPE":0,"CLASSIFICATION_TYPE":"U","NORAD_CAT_ID":68116,"ELEMENT_SET_NO":999,"REV_AT_EPOCH":450,"BSTAR":0.00061478725,"MEAN_MOTION_DOT":0.00092611,"MEAN_MOTION_DDOT":0},{"OBJECT_NAME":"STARLINK-36844","OBJECT_ID":"2026-044S","EPOCH":"2026-03-28T19:43:50.770560","MEAN_MOTION":15.75236742,"ECCENTRICITY":0.00014048,"INCLINATION":97.2847,"RA_OF_ASC_NODE":48.931,"ARG_OF_PERICENTER":90.5726,"MEAN_ANOMALY":269.57,"EPHEMERIS_TYPE":0,"CLASSIFICATION_TYPE":"U","NORAD_CAT_ID":68117,"ELEMENT_SET_NO":999,"REV_AT_EPOCH":449,"BSTAR":0.0010392196,"MEAN_MOTION_DOT":0.00158098,"MEAN_MOTION_DDOT":0},{"OBJECT_NAME":"STARLINK-36789","OBJECT_ID":"2026-044T","EPOCH":"2026-03-28T22:00:01.999584","MEAN_MOTION":15.7518813,"ECCENTRICITY":0.00013719,"INCLINATION":97.2849,"RA_OF_ASC_NODE":49.0312,"ARG_OF_PERICENTER":73.3065,"MEAN_ANOMALY":104.7401,"EPHEMERIS_TYPE":0,"CLASSIFICATION_TYPE":"U","NORAD_CAT_ID":68118,"ELEMENT_SET_NO":999,"REV_AT_EPOCH":444,"BSTAR":-4.9821215e-5,"MEAN_MOTION_DOT":-7.554e-5,"MEAN_MOTION_DDOT":0},{"OBJECT_NAME":"STARLINK-36850","OBJECT_ID":"2026-044U","EPOCH":"2026-03-28T21:14:19.045824","MEAN_MOTION":15.7519855,"ECCENTRICITY":0.00011542,"INCLINATION":97.2849,"RA_OF_ASC_NODE":48.9978,"ARG_OF_PERICENTER":87.6123,"MEAN_ANOMALY":272.5274,"EPHEMERIS_TYPE":0,"CLASSIFICATION_TYPE":"U","NORAD_CAT_ID":68119,"ELEMENT_SET_NO":999,"REV_AT_EPOCH":450,"BSTAR":0.00099449502,"MEAN_MOTION_DOT":0.0015091,"MEAN_MOTION_DDOT":0},{"OBJECT_NAME":"STARLINK-36868","OBJECT_ID":"2026-044V","EPOCH":"2026-03-28T21:12:16.962624","MEAN_MOTION":15.7522303,"ECCENTRICITY":6.825e-5,"INCLINATION":97.2848,"RA_OF_ASC_NODE":48.9997,"ARG_OF_PERICENTER":68.9743,"MEAN_ANOMALY":291.1595,"EPHEMERIS_TYPE":0,"CLASSIFICATION_TYPE":"U","NORAD_CAT_ID":68120,"ELEMENT_SET_NO":999,"REV_AT_EPOCH":450,"BSTAR":0.0013538695,"MEAN_MOTION_DOT":0.00207078,"MEAN_MOTION_DDOT":0},{"OBJECT_NAME":"STARLINK-36855","OBJECT_ID":"2026-044W","EPOCH":"2026-03-28T21:11:15.825984","MEAN_MOTION":15.75190603,"ECCENTRICITY":0.00010756,"INCLINATION":97.2852,"RA_OF_ASC_NODE":49.0012,"ARG_OF_PERICENTER":70.0831,"MEAN_ANOMALY":290.055,"EPHEMERIS_TYPE":0,"CLASSIFICATION_TYPE":"U","NORAD_CAT_ID":68121,"ELEMENT_SET_NO":999,"REV_AT_EPOCH":450,"BSTAR":0.00046884167,"MEAN_MOTION_DOT":0.0007038,"MEAN_MOTION_DDOT":0},{"OBJECT_NAME":"STARLINK-36366","OBJECT_ID":"2026-044X","EPOCH":"2026-03-28T19:39:16.180128","MEAN_MOTION":15.75273579,"ECCENTRICITY":0.00011631,"INCLINATION":97.2849,"RA_OF_ASC_NODE":48.9351,"ARG_OF_PERICENTER":98.4754,"MEAN_ANOMALY":261.6643,"EPHEMERIS_TYPE":0,"CLASSIFICATION_TYPE":"U","NORAD_CAT_ID":68122,"ELEMENT_SET_NO":999,"REV_AT_EPOCH":449,"BSTAR":0.0016130012,"MEAN_MOTION_DOT":0.0024849,"MEAN_MOTION_DDOT":0},{"OBJECT_NAME":"STARLINK-36922","OBJECT_ID":"2026-044Y","EPOCH":"2026-03-28T21:07:12.158112","MEAN_MOTION":15.75200081,"ECCENTRICITY":0.00010641,"INCLINATION":97.285,"RA_OF_ASC_NODE":49.0051,"ARG_OF_PERICENTER":78.7894,"MEAN_ANOMALY":281.3491,"EPHEMERIS_TYPE":0,"CLASSIFICATION_TYPE":"U","NORAD_CAT_ID":68123,"ELEMENT_SET_NO":999,"REV_AT_EPOCH":450,"BSTAR":0.00093993727,"MEAN_MOTION_DOT":0.00142492,"MEAN_MOTION_DDOT":0},{"OBJECT_NAME":"STARLINK-36938","OBJECT_ID":"2026-044Z","EPOCH":"2026-03-28T22:00:01.999584","MEAN_MOTION":15.75171293,"ECCENTRICITY":0.00017021,"INCLINATION":97.2875,"RA_OF_ASC_NODE":49.0956,"ARG_OF_PERICENTER":94.3539,"MEAN_ANOMALY":233.7082,"EPHEMERIS_TYPE":0,"CLASSIFICATION_TYPE":"U","NORAD_CAT_ID":68124,"ELEMENT_SET_NO":999,"REV_AT_EPOCH":449,"BSTAR":-0.00010739626,"MEAN_MOTION_DOT":-0.00016106,"MEAN_MOTION_DDOT":0},{"OBJECT_NAME":"STARLINK-36839","OBJECT_ID":"2026-044AA","EPOCH":"2026-03-28T21:08:43.663488","MEAN_MOTION":15.7519863,"ECCENTRICITY":0.00011626,"INCLINATION":97.285,"RA_OF_ASC_NODE":49.0035,"ARG_OF_PERICENTER":72.3948,"MEAN_ANOMALY":287.7444,"EPHEMERIS_TYPE":0,"CLASSIFICATION_TYPE":"U","NORAD_CAT_ID":68125,"ELEMENT_SET_NO":999,"REV_AT_EPOCH":450,"BSTAR":0.0010084838,"MEAN_MOTION_DOT":0.00153074,"MEAN_MOTION_DDOT":0},{"OBJECT_NAME":"ECHOSTAR 25","OBJECT_ID":"2026-045A","EPOCH":"2026-03-28T16:46:26.885856","MEAN_MOTION":1.00272343,"ECCENTRICITY":0.00023581,"INCLINATION":0.0536,"RA_OF_ASC_NODE":281.8242,"ARG_OF_PERICENTER":107.4043,"MEAN_ANOMALY":279.5835,"EPHEMERIS_TYPE":0,"CLASSIFICATION_TYPE":"U","NORAD_CAT_ID":68126,"ELEMENT_SET_NO":999,"REV_AT_EPOCH":18,"BSTAR":0,"MEAN_MOTION_DOT":3.9e-7,"MEAN_MOTION_DDOT":0},{"OBJECT_NAME":"ICOR SV","OBJECT_ID":"2026-046A","EPOCH":"2026-03-28T12:19:58.399968","MEAN_MOTION":15.93773105,"ECCENTRICITY":0.01050737,"INCLINATION":123.0769,"RA_OF_ASC_NODE":291.4837,"ARG_OF_PERICENTER":220.5917,"MEAN_ANOMALY":138.7286,"EPHEMERIS_TYPE":0,"CLASSIFICATION_TYPE":"U","NORAD_CAT_ID":68127,"ELEMENT_SET_NO":999,"REV_AT_EPOCH":259,"BSTAR":0.0006869443,"MEAN_MOTION_DOT":0.00443451,"MEAN_MOTION_DDOT":8.9273789e-5},{"OBJECT_NAME":"FIREFLY ALPHA R/B","OBJECT_ID":"2026-046B","EPOCH":"2026-03-28T12:25:30.742752","MEAN_MOTION":15.57205945,"ECCENTRICITY":0.00161335,"INCLINATION":123.0943,"RA_OF_ASC_NODE":288.1046,"ARG_OF_PERICENTER":17.9669,"MEAN_ANOMALY":342.1959,"EPHEMERIS_TYPE":0,"CLASSIFICATION_TYPE":"U","NORAD_CAT_ID":68128,"ELEMENT_SET_NO":999,"REV_AT_EPOCH":257,"BSTAR":0.00059261068,"MEAN_MOTION_DOT":0.0004384,"MEAN_MOTION_DDOT":0},{"OBJECT_NAME":"GUOWANG GROUP 20 OBJECT A","OBJECT_ID":"2026-047A","EPOCH":"2026-03-27T14:49:26.211072","MEAN_MOTION":13.95400489,"ECCENTRICITY":0.00013261,"INCLINATION":50.0073,"RA_OF_ASC_NODE":357.5704,"ARG_OF_PERICENTER":229.8596,"MEAN_ANOMALY":130.2189,"EPHEMERIS_TYPE":0,"CLASSIFICATION_TYPE":"U","NORAD_CAT_ID":68129,"ELEMENT_SET_NO":999,"REV_AT_EPOCH":208,"BSTAR":3.4814377e-5,"MEAN_MOTION_DOT":-1.01e-6,"MEAN_MOTION_DDOT":0},{"OBJECT_NAME":"GUOWANG GROUP 20 OBJECT B","OBJECT_ID":"2026-047B","EPOCH":"2026-03-26T18:09:03.081024","MEAN_MOTION":13.9659141,"ECCENTRICITY":4.28e-5,"INCLINATION":50.0066,"RA_OF_ASC_NODE":1.0171,"ARG_OF_PERICENTER":307.3036,"MEAN_ANOMALY":52.7826,"EPHEMERIS_TYPE":0,"CLASSIFICATION_TYPE":"U","NORAD_CAT_ID":68130,"ELEMENT_SET_NO":999,"REV_AT_EPOCH":195,"BSTAR":5.5036e-5,"MEAN_MOTION_DOT":-7.2e-7,"MEAN_MOTION_DDOT":0},{"OBJECT_NAME":"GUOWANG GROUP 20 OBJECT C","OBJECT_ID":"2026-047C","EPOCH":"2026-03-26T19:49:39.748800","MEAN_MOTION":13.9686269,"ECCENTRICITY":4.8e-6,"INCLINATION":49.9996,"RA_OF_ASC_NODE":0.7054,"ARG_OF_PERICENTER":49.5998,"MEAN_ANOMALY":310.4907,"EPHEMERIS_TYPE":0,"CLASSIFICATION_TYPE":"U","NORAD_CAT_ID":68131,"ELEMENT_SET_NO":999,"REV_AT_EPOCH":197,"BSTAR":2.709e-5,"MEAN_MOTION_DOT":-1.11e-6,"MEAN_MOTION_DDOT":0}]
