STARLINK-36805          
1 68116U 26044R   26087.88705778  .00092611  00000+0  61479-3 0  9999
2 68116  97.2850  48.9954 0001209  87.6959 272.4445 15.75200355  4500
STARLINK-36844          
1 68117U 26044S   26087.82211540  .00158098  00000+0  10392-2 0  9992
2 68117  97.2847  48.9310 0001404  90.5726 269.5700 15.75236742  4493
STARLINK-36789          
1 68118U 26044T   26087.91668981 -.00007554  00000+0 -49821-4 0  9991
2 68118  97.2849  49.0312 0001371  73.3065 104.7401 15.75188130  4448
STARLINK-36850          
1 68119U 26044U   26087.88494266  .00150910  00000+0  99450-3 0  9996
2 68119  97.2849  48.9978 0001154  87.6123 272.5274 15.75198550  4503
STARLINK-36868          
1 68120U 26044V   26087.88352966  .00207078  00000+0  13539-2 0  9999
2 68120  97.2848  48.9997 0000682  68.9743 291.1595 15.75223030  4505
STARLINK-36855          
1 68121U 26044W   26087.88282206  .00070380  00000+0  46884-3 0  9993
2 68121  97.2852  49.0012 0001075  70.0831 290.0550 15.75190603  4508
STARLINK-36366          
1 68122U 26044X   26087.81893727  .00248490  00000+0  16130-2 0  9992
2 68122  97.2849  48.9351 0001163  98.4754 261.6643 15.75273579  4494
STARLINK-36922          
1 68123U 26044Y   26087.88000183  .00142492  00000+0  93994-3 0  9995
2 68123  97.2850  49.0051 0001064  78.7894 281.3491 15.75200081  4502
STARLINK-36938          
1 68124U 26044Z   26087.91668981 -.00016106  00000+0 -10740-3 0  9998
2 68124  97.2875  49.0956 0001702  94.3539 233.7082 15.75171293  4490
STARLINK-36839          
1 68125U 26044AA  26087.88106092  .00153074  00000+0  10085-2 0  9990
2 68125  97.2850  49.0035 0001162  72.3948 287.7444 15.75198630  4509
ECHOSTAR 25             
1 68126U 26045A   26087.69892229  .00000039  00000+0  00000+0 0  9990
2 68126   0.0536 281.8242 0002358 107.4043 279.5835  1.00272343   183
ICOR SV                 
1 68127U 26046A   26087.51387037  .00443451  89274-4  68694-3 0  9990
2 68127 123.0769 291.4837 0105073 220.5917 138.7286 15.93773105  2592
FIREFLY ALPHA R/B       
1 68128U 26046B   26087.51771693  .00043840  00000+0  59261-3 0  9999
2 68128 123.0943 288.1046 0016133  17.9669 342.1959 15.57205945  2570
GUOWANG GROUP 20 OBJECT*
1 68129U 26047A   26086.61766448 -.00000101  00000+0  34814-4 0  9995
2 68129  50.0073 357.5704 0001326 229.8596 130.2189 13.95400489  2084
GUOWANG GROUP 20 OBJECT*
1 68130U 26047B   26085.75628566 -.00000072  00000+0  55036-4 0  9995
2 68130  50.0066   1.0171 0000428 307.3036  52.7826 13.96591410  1957
GUOWANG GROUP 20 OBJECT*
1 68131U 26047C   26085.82615450 -.00000111  00000+0  27090-4 0  9995
2 68131  49.9996   0.7054 0000048  49.5998 310.4907 13.96862690  1970
